[{"OBJECT_NAME":"AMC-3","OBJECT_ID":"1997-050A","EPOCH":"2026-03-03T23:54:38.515968","MEAN_MOTION":1.00271818,"ECCENTRICITY":0.00034833,"INCLINATION":7.8887,"RA_OF_ASC_NODE":65.2783,"ARG_OF_PERICENTER":287.8217,"MEAN_ANOMALY":95.3034,"EPHEMERIS_TYPE":0,"CLASSIFICATION_TYPE":"U","NORAD_CAT_ID":24936,"ELEMENT_SET_NO":999,"REV_AT_EPOCH":5138,"BSTAR":0,"MEAN_MOTION_DOT":-2.71e-6,"MEAN_MOTION_DDOT":0},{"OBJECT_NAME":"NSS-11","OBJECT_ID":"2000-059A","EPOCH":"2026-03-06T05:30:38.530368","MEAN_MOTION":1.002727,"ECCENTRICITY":0.00031726,"INCLINATION":1.8606,"RA_OF_ASC_NODE":82.649,"ARG_OF_PERICENTER":270.9226,"MEAN_ANOMALY":69.0344,"EPHEMERIS_TYPE":0,"CLASSIFICATION_TYPE":"U","NORAD_CAT_ID":26554,"ELEMENT_SET_NO":999,"REV_AT_EPOCH":4025,"BSTAR":0,"MEAN_MOTION_DOT":2.0e-7,"MEAN_MOTION_DDOT":0},{"OBJECT_NAME":"AMC-6","OBJECT_ID":"2000-067A","EPOCH":"2026-03-06T05:23:21.094944","MEAN_MOTION":1.00272794,"ECCENTRICITY":0.00030911,"INCLINATION":0.0443,"RA_OF_ASC_NODE":308.8885,"ARG_OF_PERICENTER":40.6892,"MEAN_ANOMALY":120.1377,"EPHEMERIS_TYPE":0,"CLASSIFICATION_TYPE":"U","NORAD_CAT_ID":26580,"ELEMENT_SET_NO":999,"REV_AT_EPOCH":9286,"BSTAR":0,"MEAN_MOTION_DOT":8.3e-7,"MEAN_MOTION_DDOT":0},{"OBJECT_NAME":"AMC-11","OBJECT_ID":"2004-017A","EPOCH":"2026-03-06T06:35:02.580288","MEAN_MOTION":1.00272757,"ECCENTRICITY":0.00032314,"INCLINATION":0.0461,"RA_OF_ASC_NODE":79.2801,"ARG_OF_PERICENTER":274.2575,"MEAN_ANOMALY":158.1136,"EPHEMERIS_TYPE":0,"CLASSIFICATION_TYPE":"U","NORAD_CAT_ID":28252,"ELEMENT_SET_NO":999,"REV_AT_EPOCH":7983,"BSTAR":0,"MEAN_MOTION_DOT":-5.4e-7,"MEAN_MOTION_DDOT":0},{"OBJECT_NAME":"AMC-15","OBJECT_ID":"2004-041A","EPOCH":"2026-03-06T06:36:47.412864","MEAN_MOTION":1.00272379,"ECCENTRICITY":0.00025637,"INCLINATION":0.0512,"RA_OF_ASC_NODE":300.1987,"ARG_OF_PERICENTER":29.666,"MEAN_ANOMALY":188.266,"EPHEMERIS_TYPE":0,"CLASSIFICATION_TYPE":"U","NORAD_CAT_ID":28446,"ELEMENT_SET_NO":999,"REV_AT_EPOCH":7827,"BSTAR":0,"MEAN_MOTION_DOT":-9.4e-7,"MEAN_MOTION_DDOT":0},{"OBJECT_NAME":"NSS-10","OBJECT_ID":"2005-003A","EPOCH":"2026-03-04T10:52:38.525952","MEAN_MOTION":1.00271252,"ECCENTRICITY":0.0003261,"INCLINATION":6.1878,"RA_OF_ASC_NODE":71.7201,"ARG_OF_PERICENTER":277.1631,"MEAN_ANOMALY":299.0193,"EPHEMERIS_TYPE":0,"CLASSIFICATION_TYPE":"U","NORAD_CAT_ID":28526,"ELEMENT_SET_NO":999,"REV_AT_EPOCH":5210,"BSTAR":0,"MEAN_MOTION_DOT":-2.6e-6,"MEAN_MOTION_DDOT":0},{"OBJECT_NAME":"ASTRA 1KR","OBJECT_ID":"2006-012A","EPOCH":"2026-03-06T05:29:23.876448","MEAN_MOTION":1.00270287,"ECCENTRICITY":0.00033952,"INCLINATION":0.2083,"RA_OF_ASC_NODE":81.8698,"ARG_OF_PERICENTER":252.8544,"MEAN_ANOMALY":290.5559,"EPHEMERIS_TYPE":0,"CLASSIFICATION_TYPE":"U","NORAD_CAT_ID":29055,"ELEMENT_SET_NO":999,"REV_AT_EPOCH":4466,"BSTAR":0,"MEAN_MOTION_DOT":1.14e-6,"MEAN_MOTION_DDOT":0},{"OBJECT_NAME":"ASTRA 1L","OBJECT_ID":"2007-016A","EPOCH":"2026-03-06T05:17:02.560128","MEAN_MOTION":1.00271139,"ECCENTRICITY":0.00033866,"INCLINATION":1.0554,"RA_OF_ASC_NODE":82.408,"ARG_OF_PERICENTER":279.9374,"MEAN_ANOMALY":216.3962,"EPHEMERIS_TYPE":0,"CLASSIFICATION_TYPE":"U","NORAD_CAT_ID":31306,"ELEMENT_SET_NO":999,"REV_AT_EPOCH":4395,"BSTAR":0,"MEAN_MOTION_DOT":-1.89e-6,"MEAN_MOTION_DDOT":0},{"OBJECT_NAME":"ASTRA 4A","OBJECT_ID":"2007-057A","EPOCH":"2026-03-06T05:25:24.259008","MEAN_MOTION":1.00271005,"ECCENTRICITY":0.00024319,"INCLINATION":0.0497,"RA_OF_ASC_NODE":296.4657,"ARG_OF_PERICENTER":51.5377,"MEAN_ANOMALY":262.0952,"EPHEMERIS_TYPE":0,"CLASSIFICATION_TYPE":"U","NORAD_CAT_ID":32299,"ELEMENT_SET_NO":999,"REV_AT_EPOCH":5061,"BSTAR":0,"MEAN_MOTION_DOT":2.7e-7,"MEAN_MOTION_DDOT":0},{"OBJECT_NAME":"ASTRA 1M","OBJECT_ID":"2008-057A","EPOCH":"2026-03-06T05:29:31.363872","MEAN_MOTION":1.00269412,"ECCENTRICITY":8.121e-5,"INCLINATION":0.0388,"RA_OF_ASC_NODE":62.623,"ARG_OF_PERICENTER":356.4402,"MEAN_ANOMALY":206.4567,"EPHEMERIS_TYPE":0,"CLASSIFICATION_TYPE":"U","NORAD_CAT_ID":33436,"ELEMENT_SET_NO":999,"REV_AT_EPOCH":4470,"BSTAR":0,"MEAN_MOTION_DOT":1.14e-6,"MEAN_MOTION_DDOT":0},{"OBJECT_NAME":"NSS-9","OBJECT_ID":"2009-008A","EPOCH":"2026-03-06T06:16:19.375968","MEAN_MOTION":1.00273877,"ECCENTRICITY":0.00021292,"INCLINATION":0.9954,"RA_OF_ASC_NODE":83.6844,"ARG_OF_PERICENTER":259.6543,"MEAN_ANOMALY":97.7939,"EPHEMERIS_TYPE":0,"CLASSIFICATION_TYPE":"U","NORAD_CAT_ID":33749,"ELEMENT_SET_NO":999,"REV_AT_EPOCH":6248,"BSTAR":0,"MEAN_MOTION_DOT":6.7e-7,"MEAN_MOTION_DDOT":0},{"OBJECT_NAME":"SES-7 (PROTOSTAR 2)","OBJECT_ID":"2009-027A","EPOCH":"2026-03-06T06:26:38.736960","MEAN_MOTION":1.00270829,"ECCENTRICITY":0.00014064,"INCLINATION":0.0139,"RA_OF_ASC_NODE":90.1445,"ARG_OF_PERICENTER":219.8319,"MEAN_ANOMALY":58.9219,"EPHEMERIS_TYPE":0,"CLASSIFICATION_TYPE":"U","NORAD_CAT_ID":34941,"ELEMENT_SET_NO":999,"REV_AT_EPOCH":6159,"BSTAR":0,"MEAN_MOTION_DOT":-3.5e-6,"MEAN_MOTION_DDOT":0},{"OBJECT_NAME":"NSS-12","OBJECT_ID":"2009-058A","EPOCH":"2026-03-05T22:52:51.843648","MEAN_MOTION":1.00273203,"ECCENTRICITY":0.00049284,"INCLINATION":0.0059,"RA_OF_ASC_NODE":271.0884,"ARG_OF_PERICENTER":59.5811,"MEAN_ANOMALY":233.2158,"EPHEMERIS_TYPE":0,"CLASSIFICATION_TYPE":"U","NORAD_CAT_ID":36032,"ELEMENT_SET_NO":999,"REV_AT_EPOCH":5988,"BSTAR":0,"MEAN_MOTION_DOT":6.5e-7,"MEAN_MOTION_DDOT":0},{"OBJECT_NAME":"SES-1","OBJECT_ID":"2010-016A","EPOCH":"2026-03-06T04:24:38.565216","MEAN_MOTION":1.00272571,"ECCENTRICITY":0.000249,"INCLINATION":0.0493,"RA_OF_ASC_NODE":296.2372,"ARG_OF_PERICENTER":43.0385,"MEAN_ANOMALY":149.7884,"EPHEMERIS_TYPE":0,"CLASSIFICATION_TYPE":"U","NORAD_CAT_ID":36516,"ELEMENT_SET_NO":999,"REV_AT_EPOCH":5800,"BSTAR":0,"MEAN_MOTION_DOT":-1.2e-6,"MEAN_MOTION_DDOT":0},{"OBJECT_NAME":"ASTRA 3B","OBJECT_ID":"2010-021A","EPOCH":"2026-03-06T05:30:46.244160","MEAN_MOTION":1.00272558,"ECCENTRICITY":0.00031191,"INCLINATION":1.2021,"RA_OF_ASC_NODE":84.899,"ARG_OF_PERICENTER":281.5715,"MEAN_ANOMALY":263.6647,"EPHEMERIS_TYPE":0,"CLASSIFICATION_TYPE":"U","NORAD_CAT_ID":36581,"ELEMENT_SET_NO":999,"REV_AT_EPOCH":5783,"BSTAR":0,"MEAN_MOTION_DOT":1.32e-6,"MEAN_MOTION_DDOT":0},{"OBJECT_NAME":"SES-3","OBJECT_ID":"2011-035A","EPOCH":"2026-03-06T04:24:38.565216","MEAN_MOTION":1.00272342,"ECCENTRICITY":0.00035828,"INCLINATION":1.0603,"RA_OF_ASC_NODE":84.2843,"ARG_OF_PERICENTER":269.0565,"MEAN_ANOMALY":133.7161,"EPHEMERIS_TYPE":0,"CLASSIFICATION_TYPE":"U","NORAD_CAT_ID":37748,"ELEMENT_SET_NO":999,"REV_AT_EPOCH":5356,"BSTAR":0,"MEAN_MOTION_DOT":-1.07e-6,"MEAN_MOTION_DDOT":0},{"OBJECT_NAME":"ASTRA 1N","OBJECT_ID":"2011-041A","EPOCH":"2026-03-05T14:05:18.648096","MEAN_MOTION":1.00274542,"ECCENTRICITY":0.0004155,"INCLINATION":0.0703,"RA_OF_ASC_NODE":22.8506,"ARG_OF_PERICENTER":356.9516,"MEAN_ANOMALY":14.0459,"EPHEMERIS_TYPE":0,"CLASSIFICATION_TYPE":"U","NORAD_CAT_ID":37775,"ELEMENT_SET_NO":999,"REV_AT_EPOCH":4348,"BSTAR":0,"MEAN_MOTION_DOT":1.13e-6,"MEAN_MOTION_DDOT":0}]
